{"type": "FeatureCollection", "features": [{"type": "Feature", "properties": {"norad_id": 22490, "name": "SCD 1", "group": "resource", "lat": 7.230892630120697, "lon": 17.002329968697946, "alt_km": 732.8932432151332, "timestamp": "2025-12-23T09:49:06.732703+00:00", "meta": {"OBJECT_NAME": "SCD 1", "OBJECT_ID": "1993-009B", "EPOCH": "2025-12-22T16:44:45.352896", "MEAN_MOTION": 14.46005268, "ECCENTRICITY": 0.0042167, "INCLINATION": 24.9679, "RA_OF_ASC_NODE": 217.2144, "ARG_OF_PERICENTER": 70.2904, "MEAN_ANOMALY": 341.2341, "EPHEMERIS_TYPE": 0, "CLASSIFICATION_TYPE": "U", "NORAD_CAT_ID": 22490, "ELEMENT_SET_NO": 999, "REV_AT_EPOCH": 73554, "BSTAR": 7.1091153e-05, "MEAN_MOTION_DOT": 4.45e-06, "MEAN_MOTION_DDOT": 0}, "tle": {"line1": "1 22490U 93009B   25356.69774714  .00000445  00000+0  71091-4 0  9998", "line2": "2 22490  24.9679 217.2144 0042167  70.2904 341.2341 14.46005268735547"}}, "geometry": {"type": "Point", "coordinates": [17.002329968697946, 7.230892630120697]}}, {"type": "Feature", "properties": {"norad_id": 25397, "name": "TECHSAT 1B (GO-32)", "group": "resource", "lat": 50.65094038046775, "lon": 172.00417099563953, "alt_km": 805.8531449743596, "timestamp": "2025-12-23T09:49:06.732730+00:00", "meta": {"OBJECT_NAME": "TECHSAT 1B (GO-32)", "OBJECT_ID": "1998-043D", "EPOCH": "2025-12-22T16:21:32.526144", "MEAN_MOTION": 14.24379632, "ECCENTRICITY": 0.00017569, "INCLINATION": 98.9931, "RA_OF_ASC_NODE": 340.1236, "ARG_OF_PERICENTER": 41.5231, "MEAN_ANOMALY": 318.608, "EPHEMERIS_TYPE": 0, "CLASSIFICATION_TYPE": "U", "NORAD_CAT_ID": 25397, "ELEMENT_SET_NO": 999, "REV_AT_EPOCH": 42620, "BSTAR": 4.7894627e-05, "MEAN_MOTION_DOT": 6.4e-07, "MEAN_MOTION_DDOT": 0}, "tle": {"line1": "1 25397U 98043D   25356.68162646  .00000064  00000+0  47895-4 0  9996", "line2": "2 25397  98.9931 340.1236 0001756  41.5231 318.6080 14.24379632426202"}}, "geometry": {"type": "Point", "coordinates": [172.00417099563953, 50.65094038046775]}}, {"type": "Feature", "properties": {"norad_id": 25504, "name": "SCD 2", "group": "resource", "lat": 3.324631586129002, "lon": -111.0527588971275, "alt_km": 741.4949638355411, "timestamp": "2025-12-23T09:49:06.732745+00:00", "meta": {"OBJECT_NAME": "SCD 2", "OBJECT_ID": "1998-060A", "EPOCH": "2025-12-22T13:43:51.661344", "MEAN_MOTION": 14.45428389, "ECCENTRICITY": 0.00170381, "INCLINATION": 24.995, "RA_OF_ASC_NODE": 81.268, "ARG_OF_PERICENTER": 57.3141, "MEAN_ANOMALY": 70.4523, "EPHEMERIS_TYPE": 0, "CLASSIFICATION_TYPE": "U", "NORAD_CAT_ID": 25504, "ELEMENT_SET_NO": 999, "REV_AT_EPOCH": 43474, "BSTAR": 6.2921219e-05, "MEAN_MOTION_DOT": 4.07e-06, "MEAN_MOTION_DDOT": 0}, "tle": {"line1": "1 25504U 98060A   25356.57212571  .00000407  00000+0  62921-4 0  9994", "line2": "2 25504  24.9950  81.2680 0017038  57.3141  70.4523 14.45428389434743"}}, "geometry": {"type": "Point", "coordinates": [-111.0527588971275, 3.324631586129002]}}, {"type": "Feature", "properties": {"norad_id": 25757, "name": "DLR-TUBSAT", "group": "resource", "lat": -20.18092175602409, "lon": -14.53796041632524, "alt_km": 733.1970145660835, "timestamp": "2025-12-23T09:49:06.732758+00:00", "meta": {"OBJECT_NAME": "DLR-TUBSAT", "OBJECT_ID": "1999-029B", "EPOCH": "2025-12-17T13:22:10.787520", "MEAN_MOTION": 14.52359578, "ECCENTRICITY": 0.00141996, "INCLINATION": 98.6566, "RA_OF_ASC_NODE": 336.2196, "ARG_OF_PERICENTER": 177.8976, "MEAN_ANOMALY": 182.2281, "EPHEMERIS_TYPE": 0, "CLASSIFICATION_TYPE": "U", "NORAD_CAT_ID": 25757, "ELEMENT_SET_NO": 999, "REV_AT_EPOCH": 40688, "BSTAR": 3.7650132e-05, "MEAN_MOTION_DOT": 1.05e-06, "MEAN_MOTION_DDOT": 0}, "tle": {"line1": "1 25757U 99029B   25351.55706930  .00000105  00000+0  37650-4 0  9996", "line2": "2 25757  98.6566 336.2196 0014199 177.8976 182.2281 14.52359578406886"}}, "geometry": {"type": "Point", "coordinates": [-14.53796041632524, -20.18092175602409]}}, {"type": "Feature", "properties": {"norad_id": 25994, "name": "TERRA", "group": "resource", "lat": 9.900855827055537, "lon": 47.29946136013742, "alt_km": 690.7038750710981, "timestamp": "2025-12-23T09:49:06.732770+00:00", "meta": {"OBJECT_NAME": "TERRA", "OBJECT_ID": "1999-068A", "EPOCH": "2025-12-22T21:24:42.359616", "MEAN_MOTION": 14.60912896, "ECCENTRICITY": 0.00034769, "INCLINATION": 97.9733, "RA_OF_ASC_NODE": 48.2034, "ARG_OF_PERICENTER": 74.1925, "MEAN_ANOMALY": 98.7996, "EPHEMERIS_TYPE": 0, "CLASSIFICATION_TYPE": "U", "NORAD_CAT_ID": 25994, "ELEMENT_SET_NO": 999, "REV_AT_EPOCH": 38386, "BSTAR": 0.00010694948, "MEAN_MOTION_DOT": 4.79e-06, "MEAN_MOTION_DDOT": 0}, "tle": {"line1": "1 25994U 99068A   25356.89215694  .00000479  00000+0  10695-3 0  9999", "line2": "2 25994  97.9733  48.2034 0003476  74.1925  98.7996 14.60912896383860"}}, "geometry": {"type": "Point", "coordinates": [47.29946136013742, 9.900855827055537]}}, {"type": "Feature", "properties": {"norad_id": 27004, "name": "MAROC-TUBSAT", "group": "resource", "lat": 55.79875772634208, "lon": 0.7598901820590229, "alt_km": 997.8429314783707, "timestamp": "2025-12-23T09:49:06.732782+00:00", "meta": {"OBJECT_NAME": "MAROC-TUBSAT", "OBJECT_ID": "2001-056D", "EPOCH": "2025-12-22T08:59:06.016416", "MEAN_MOTION": 13.70253386, "ECCENTRICITY": 0.00192156, "INCLINATION": 99.7916, "RA_OF_ASC_NODE": 164.9882, "ARG_OF_PERICENTER": 234.5504, "MEAN_ANOMALY": 186.9487, "EPHEMERIS_TYPE": 0, "CLASSIFICATION_TYPE": "U", "NORAD_CAT_ID": 27004, "ELEMENT_SET_NO": 999, "REV_AT_EPOCH": 20197, "BSTAR": 2.5339706e-05, "MEAN_MOTION_DOT": -2.4e-07, "MEAN_MOTION_DDOT": 0}, "tle": {"line1": "1 27004U 01056D   25356.37437519 -.00000024  00000+0  25340-4 0  9999", "line2": "2 27004  99.7916 164.9882 0019215 234.5504 186.9487 13.70253386201975"}}, "geometry": {"type": "Point", "coordinates": [0.7598901820590229, 55.79875772634208]}}, {"type": "Feature", "properties": {"norad_id": 27424, "name": "AQUA", "group": "resource", "lat": -76.54456874602127, "lon": -3.369398298585118, "alt_km": 695.6221479672677, "timestamp": "2025-12-23T09:49:06.732793+00:00", "meta": {"OBJECT_NAME": "AQUA", "OBJECT_ID": "2002-022A", "EPOCH": "2025-12-21T22:23:22.230816", "MEAN_MOTION": 14.61820667, "ECCENTRICITY": 0.00014386, "INCLINATION": 98.405, "RA_OF_ASC_NODE": 316.9619, "ARG_OF_PERICENTER": 110.3776, "MEAN_ANOMALY": 326.1362, "EPHEMERIS_TYPE": 0, "CLASSIFICATION_TYPE": "U", "NORAD_CAT_ID": 27424, "ELEMENT_SET_NO": 999, "REV_AT_EPOCH": 25737, "BSTAR": 0.00018434413, "MEAN_MOTION_DOT": 8.71e-06, "MEAN_MOTION_DDOT": 0}, "tle": {"line1": "1 27424U 02022A   25355.93289619  .00000871  00000+0  18434-3 0  9990", "line2": "2 27424  98.4050 316.9619 0001438 110.3776 326.1362 14.61820667257371"}}, "geometry": {"type": "Point", "coordinates": [-3.369398298585118, -76.54456874602127]}}, {"type": "Feature", "properties": {"norad_id": 28051, "name": "IRS-P6 (RESOURCESAT-1)", "group": "resource", "lat": -57.3133568094029, "lon": -155.69201143677148, "alt_km": 777.7691958231871, "timestamp": "2025-12-23T09:49:06.732805+00:00", "meta": {"OBJECT_NAME": "IRS-P6 (RESOURCESAT-1)", "OBJECT_ID": "2003-046A", "EPOCH": "2025-12-22T23:04:46.341408", "MEAN_MOTION": 14.36078735, "ECCENTRICITY": 0.00647853, "INCLINATION": 98.2162, "RA_OF_ASC_NODE": 36.8944, "ARG_OF_PERICENTER": 150.1282, "MEAN_ANOMALY": 295.3491, "EPHEMERIS_TYPE": 0, "CLASSIFICATION_TYPE": "U", "NORAD_CAT_ID": 28051, "ELEMENT_SET_NO": 999, "REV_AT_EPOCH": 15523, "BSTAR": 4.6427224e-05, "MEAN_MOTION_DOT": 9.8e-07, "MEAN_MOTION_DDOT": 0}, "tle": {"line1": "1 28051U 03046A   25356.96164747  .00000098  00000+0  46427-4 0  9997", "line2": "2 28051  98.2162  36.8944 0064785 150.1282 295.3491 14.36078735155232"}}, "geometry": {"type": "Point", "coordinates": [-155.69201143677148, -57.3133568094029]}}, {"type": "Feature", "properties": {"norad_id": 28220, "name": "SHIYAN-1 (SY-1)", "group": "resource", "lat": 46.539534074749895, "lon": 51.160743897040355, "alt_km": 478.5895121730555, "timestamp": "2025-12-23T09:49:06.732816+00:00", "meta": {"OBJECT_NAME": "SHIYAN-1 (SY-1)", "OBJECT_ID": "2004-012A", "EPOCH": "2025-12-21T21:28:24.522528", "MEAN_MOTION": 15.28363795, "ECCENTRICITY": 0.00051617, "INCLINATION": 97.8924, "RA_OF_ASC_NODE": 57.9743, "ARG_OF_PERICENTER": 287.3834, "MEAN_ANOMALY": 72.684, "EPHEMERIS_TYPE": 0, "CLASSIFICATION_TYPE": "U", "NORAD_CAT_ID": 28220, "ELEMENT_SET_NO": 999, "REV_AT_EPOCH": 18396, "BSTAR": 0.00048309009, "MEAN_MOTION_DOT": 0.00013276, "MEAN_MOTION_DDOT": 0}, "tle": {"line1": "1 28220U 04012A   25355.89472827  .00013276  00000+0  48309-3 0  9993", "line2": "2 28220  97.8924  57.9743 0005161 287.3834  72.6840 15.28363795183961"}}, "geometry": {"type": "Point", "coordinates": [51.160743897040355, 46.539534074749895]}}, {"type": "Feature", "properties": {"norad_id": 28376, "name": "AURA", "group": "resource", "lat": 18.455946504200686, "lon": -55.11328031088692, "alt_km": 690.0346426921233, "timestamp": "2025-12-23T09:49:06.732827+00:00", "meta": {"OBJECT_NAME": "AURA", "OBJECT_ID": "2004-026A", "EPOCH": "2025-12-22T20:35:01.113792", "MEAN_MOTION": 14.60968353, "ECCENTRICITY": 0.00013968, "INCLINATION": 98.32, "RA_OF_ASC_NODE": 307.132, "ARG_OF_PERICENTER": 91.9638, "MEAN_ANOMALY": 268.1722, "EPHEMERIS_TYPE": 0, "CLASSIFICATION_TYPE": "U", "NORAD_CAT_ID": 28376, "ELEMENT_SET_NO": 999, "REV_AT_EPOCH": 14046, "BSTAR": 0.00019583281, "MEAN_MOTION_DOT": 9.12e-06, "MEAN_MOTION_DDOT": 0}, "tle": {"line1": "1 28376U 04026A   25356.85765178  .00000912  00000+0  19583-3 0  9996", "line2": "2 28376  98.3200 307.1320 0001396  91.9638 268.1722 14.60968353140469"}}, "geometry": {"type": "Point", "coordinates": [-55.11328031088692, 18.455946504200686]}}]}